CSS (TIANHE)            
1 48274U 21035A   23248.36521264  .00028141  00000+0  31775-3 0  9995
2 48274  41.4748  28.3327 0010681 305.5602  54.4241 15.61785627134362
